{"type": "FeatureCollection", "features": [ {"type": "Feature", "properties": {"norad_id": 66551, "name": "UNKNOWN", "group": "last-30-days", "lat": 41.43893178584067, "lon": 2.5938635753318295, "alt_km": 326.91107777374236, "timestamp": "2025-12-05T04:52:14.142494+00:00", "meta": {"OBJECT_NAME": "UNKNOWN", "OBJECT_ID": "2025-271AE", "EPOCH": "2025-12-02T16:00:03.000096", "MEAN_MOTION": 15.87051116, "ECCENTRICITY": 7.17e-05, "INCLINATION": 53.1571, "RA_OF_ASC_NODE": 236.7807, "ARG_OF_PERICENTER": 110.7411, "MEAN_ANOMALY": 313.9012, "EPHEMERIS_TYPE": 0, "CLASSIFICATION_TYPE": "U", "NORAD_CAT_ID": 66551, "ELEMENT_SET_NO": 999, "REV_AT_EPOCH": 262, "BSTAR": -0.0074303, "MEAN_MOTION_DOT": -0.01709685, "MEAN_MOTION_DDOT": 0}, "tle": {"line1": "1 66551U 25271AE  25336.66670139 -.01709685  00000+0 -74303-2 0  9993", "line2": "2 66551  53.1571 236.7807 0000717 110.7411 313.9012 15.87051116  2624"}}, "geometry": {"type": "Point", "coordinates": [2.5938635753318295, 41.43893178584067]}}, {"type": "Feature", "properties": {"norad_id": 66554, "name": "GLOBAL-33", "group": "last-30-days", "lat": -22.658044765913242, "lon": -51.8841121083114, "alt_km": 476.7209796320594, "timestamp": "2025-12-05T04:52:14.142507+00:00", "meta": {"OBJECT_NAME": "GLOBAL-33", "OBJECT_ID": "2025-267A", "EPOCH": "2025-12-04T15:24:47.579904", "MEAN_MOTION": 15.31343102, "ECCENTRICITY": 0.00053689, "INCLINATION": 42.0191, "RA_OF_ASC_NODE": 103.7308, "ARG_OF_PERICENTER": 354.3284, "MEAN_ANOMALY": 5.7492, "EPHEMERIS_TYPE": 0, "CLASSIFICATION_TYPE": "U", "NORAD_CAT_ID": 66554, "ELEMENT_SET_NO": 999, "REV_AT_EPOCH": 216, "BSTAR": 0.00083341643, "MEAN_MOTION_DOT": 0.00025621, "MEAN_MOTION_DDOT": 0}, "tle": {"line1": "1 66554U 25267A   25338.64221736  .00025621  00000+0  83342-3 0  9998", "line2": "2 66554  42.0191 103.7308 0005368 354.3284   5.7492 15.31343102  2167"}}, "geometry": {"type": "Point", "coordinates": [-51.8841121083114, -22.658044765913242]}}, {"type": "Feature", "properties": {"norad_id": 66555, "name": "ELECTRON KICK STAGE R/B", "group": "last-30-days", "lat": -39.62949530993264, "lon": -12.694974327718862, "alt_km": 473.42576724560877, "timestamp": "2025-12-05T04:52:14.142516+00:00", "meta": {"OBJECT_NAME": "ELECTRON KICK STAGE R/B", "OBJECT_ID": "2025-267B", "EPOCH": "2025-12-04T15:15:31.817952", "MEAN_MOTION": 15.32232828, "ECCENTRICITY": 0.00072797, "INCLINATION": 42.0175, "RA_OF_ASC_NODE": 103.6834, "ARG_OF_PERICENTER": 353.8025, "MEAN_ANOMALY": 6.2722, "EPHEMERIS_TYPE": 0, "CLASSIFICATION_TYPE": "U", "NORAD_CAT_ID": 66555, "ELEMENT_SET_NO": 999, "REV_AT_EPOCH": 216, "BSTAR": 0.0014703471, "MEAN_MOTION_DOT": 0.00046832, "MEAN_MOTION_DDOT": 0}, "tle": {"line1": "1 66555U 25267B   25338.63578493  .00046832  00000+0  14703-2 0  9994", "line2": "2 66555  42.0175 103.6834 0007279 353.8025   6.2722 15.32232828  2168"}}, "geometry": {"type": "Point", "coordinates": [-12.694974327718862, -39.62949530993264]}}, {"type": "Feature", "properties": {"norad_id": 66557, "name": "STARLINK-35699", "group": "last-30-days", "lat": -19.628884944479825, "lon": 143.08075706028208, "alt_km": 365.8513765907219, "timestamp": "2025-12-05T04:52:14.142526+00:00", "meta": {"OBJECT_NAME": "STARLINK-35699", "OBJECT_ID": "2025-268A", "EPOCH": "2025-12-04T18:00:02.000160", "MEAN_MOTION": 15.6990097, "ECCENTRICITY": 0.0001601, "INCLINATION": 42.9986, "RA_OF_ASC_NODE": 168.3091, "ARG_OF_PERICENTER": 265.6562, "MEAN_ANOMALY": 23.6017, "EPHEMERIS_TYPE": 0, "CLASSIFICATION_TYPE": "U", "NORAD_CAT_ID": 66557, "ELEMENT_SET_NO": 999, "REV_AT_EPOCH": 338, "BSTAR": -0.017708, "MEAN_MOTION_DOT": -0.01934649, "MEAN_MOTION_DDOT": 0}, "tle": {"line1": "1 66557U 25268A   25338.75002315 -.01934649  00000+0 -17708-1 0  9997", "line2": "2 66557  42.9986 168.3091 0001601 265.6562  23.6017 15.69900970  3386"}}, "geometry": {"type": "Point", "coordinates": [143.08075706028208, -19.628884944479825]}}, {"type": "Feature", "properties": {"norad_id": 66558, "name": "STARLINK-35695", "group": "last-30-days", "lat": -18.415461282388417, "lon": 144.64456760397138, "alt_km": 365.79412996659266, "timestamp": "2025-12-05T04:52:14.142534+00:00", "meta": {"OBJECT_NAME": "STARLINK-35695", "OBJECT_ID": "2025-268B", "EPOCH": "2025-12-04T18:00:02.000160", "MEAN_MOTION": 15.69903258, "ECCENTRICITY": 0.000159, "INCLINATION": 42.9986, "RA_OF_ASC_NODE": 168.3044, "ARG_OF_PERICENTER": 265.3983, "MEAN_ANOMALY": 25.775, "EPHEMERIS_TYPE": 0, "CLASSIFICATION_TYPE": "U", "NORAD_CAT_ID": 66558, "ELEMENT_SET_NO": 999, "REV_AT_EPOCH": 338, "BSTAR": -0.017731, "MEAN_MOTION_DOT": -0.01936997, "MEAN_MOTION_DDOT": 0}, "tle": {"line1": "1 66558U 25268B   25338.75002315 -.01936997  00000+0 -17731-1 0  9992", "line2": "2 66558  42.9986 168.3044 0001590 265.3983  25.7750 15.69903258  3385"}}, "geometry": {"type": "Point", "coordinates": [144.64456760397138, -18.415461282388417]}}, {"type": "Feature", "properties": {"norad_id": 66559, "name": "STARLINK-35419", "group": "last-30-days", "lat": -17.189416984098447, "lon": 146.18652077328667, "alt_km": 365.71271856627754, "timestamp": "2025-12-05T04:52:14.142543+00:00", "meta": {"OBJECT_NAME": "STARLINK-35419", "OBJECT_ID": "2025-268C", "EPOCH": "2025-12-04T18:00:02.000160", "MEAN_MOTION": 15.69901745, "ECCENTRICITY": 0.000161, "INCLINATION": 42.9986, "RA_OF_ASC_NODE": 168.3, "ARG_OF_PERICENTER": 265.6302, "MEAN_ANOMALY": 27.4613, "EPHEMERIS_TYPE": 0, "CLASSIFICATION_TYPE": "U", "NORAD_CAT_ID": 66559, "ELEMENT_SET_NO": 999, "REV_AT_EPOCH": 338, "BSTAR": -0.017722, "MEAN_MOTION_DOT": -0.01935994, "MEAN_MOTION_DDOT": 0}, "tle": {"line1": "1 66559U 25268C   25338.75002315 -.01935994  00000+0 -17722-1 0  9999", "line2": "2 66559  42.9986 168.3000 0001610 265.6302  27.4613 15.69901745  3385"}}, "geometry": {"type": "Point", "coordinates": [146.18652077328667, -17.189416984098447]}}, {"type": "Feature", "properties": {"norad_id": 66560, "name": "STARLINK-35411", "group": "last-30-days", "lat": -15.951626192494235, "lon": 147.7078209196231, "alt_km": 365.6174236379893, "timestamp": "2025-12-05T04:52:14.142554+00:00", "meta": {"OBJECT_NAME": "STARLINK-35411", "OBJECT_ID": "2025-268D", "EPOCH": "2025-12-04T18:00:02.000160", "MEAN_MOTION": 15.69901953, "ECCENTRICITY": 0.0001612, "INCLINATION": 42.9988, "RA_OF_ASC_NODE": 168.2951, "ARG_OF_PERICENTER": 266.4766, "MEAN_ANOMALY": 28.5324, "EPHEMERIS_TYPE": 0, "CLASSIFICATION_TYPE": "U", "NORAD_CAT_ID": 66560, "ELEMENT_SET_NO": 999, "REV_AT_EPOCH": 338, "BSTAR": -0.01773, "MEAN_MOTION_DOT": -0.01936805, "MEAN_MOTION_DDOT": 0}, "tle": {"line1": "1 66560U 25268D   25338.75002315 -.01936805  00000+0 -17730-1 0  9992", "line2": "2 66560  42.9988 168.2951 0001612 266.4766  28.5324 15.69901953  3380"}}, "geometry": {"type": "Point", "coordinates": [147.7078209196231, -15.951626192494235]}}, {"type": "Feature", "properties": {"norad_id": 66561, "name": "STARLINK-35305", "group": "last-30-days", "lat": -13.444457505190579, "lon": 150.69622543443734, "alt_km": 365.52311745597854, "timestamp": "2025-12-05T04:52:14.142563+00:00", "meta": {"OBJECT_NAME": "STARLINK-35305", "OBJECT_ID": "2025-268E", "EPOCH": "2025-12-04T18:00:02.000160", "MEAN_MOTION": 15.69895231, "ECCENTRICITY": 0.000155, "INCLINATION": 42.9987, "RA_OF_ASC_NODE": 168.2854, "ARG_OF_PERICENTER": 264.2874, "MEAN_ANOMALY": 34.5613, "EPHEMERIS_TYPE": 0, "CLASSIFICATION_TYPE": "U", "NORAD_CAT_ID": 66561, "ELEMENT_SET_NO": 999, "REV_AT_EPOCH": 333, "BSTAR": -0.017663, "MEAN_MOTION_DOT": -0.01929787, "MEAN_MOTION_DDOT": 0}, "tle": {"line1": "1 66561U 25268E   25338.75002315 -.01929787  00000+0 -17663-1 0  9999", "line2": "2 66561  42.9987 168.2854 0001550 264.2874  34.5613 15.69895231  3333"}}, "geometry": {"type": "Point", "coordinates": [150.69622543443734, -13.444457505190579]}}, {"type": "Feature", "properties": {"norad_id": 66562, "name": "STARLINK-35579", "group": "last-30-days", "lat": -14.702869667445281, "lon": 149.21012854360666, "alt_km": 365.5941077594671, "timestamp": "2025-12-05T04:52:14.142571+00:00", "meta": {"OBJECT_NAME": "STARLINK-35579", "OBJECT_ID": "2025-268F", "EPOCH": "2025-12-04T18:00:02.000160", "MEAN_MOTION": 15.69898936, "ECCENTRICITY": 0.0001559, "INCLINATION": 42.9987, "RA_OF_ASC_NODE": 168.2898, "ARG_OF_PERICENTER": 264.7654, "MEAN_ANOMALY": 32.1634, "EPHEMERIS_TYPE": 0, "CLASSIFICATION_TYPE": "U", "NORAD_CAT_ID": 66562, "ELEMENT_SET_NO": 999, "REV_AT_EPOCH": 338, "BSTAR": -0.017701, "MEAN_MOTION_DOT": -0.01933781, "MEAN_MOTION_DDOT": 0}, "tle": {"line1": "1 66562U 25268F   25338.75002315 -.01933781  00000+0 -17701-1 0  9992", "line2": "2 66562  42.9987 168.2898 0001559 264.7654  32.1634 15.69898936  3389"}}, "geometry": {"type": "Point", "coordinates": [149.21012854360666, -14.702869667445281]}}, {"type": "Feature", "properties": {"norad_id": 66563, "name": "STARLINK-35437", "group": "last-30-days", "lat": -12.177669937684415, "lon": 152.16563568061417, "alt_km": 365.3713146305281, "timestamp": "2025-12-05T04:52:14.142583+00:00", "meta": {"OBJECT_NAME": "STARLINK-35437", "OBJECT_ID": "2025-268G", "EPOCH": "2025-12-04T18:00:02.000160", "MEAN_MOTION": 15.69901983, "ECCENTRICITY": 0.0001629, "INCLINATION": 42.9987, "RA_OF_ASC_NODE": 168.2803, "ARG_OF_PERICENTER": 266.2263, "MEAN_ANOMALY": 34.534, "EPHEMERIS_TYPE": 0, "CLASSIFICATION_TYPE": "U", "NORAD_CAT_ID": 66563, "ELEMENT_SET_NO": 999, "REV_AT_EPOCH": 338, "BSTAR": -0.017733, "MEAN_MOTION_DOT": -0.01937127, "MEAN_MOTION_DDOT": 0}, "tle": {"line1": "1 66563U 25268G   25338.75002315 -.01937127  00000+0 -17733-1 0  9996", "line2": "2 66563  42.9987 168.2803 0001629 266.2263  34.5340 15.69901983  3384"}}, "geometry": {"type": "Point", "coordinates": [152.16563568061417, -12.177669937684415]}}]}